LEMUR-2-STAS-GORBUK     
1 66686U 25276W   26068.71463453  .00006895  00000+0  34029-3 0  9997
2 66686  97.4319 143.9565 0004829   1.4677 358.6570 15.18201916 15316
MAUVE                   
1 66756U 25276CU  26068.71857583  .00008348  00000+0  39937-3 0  9994
2 66756  97.4273 144.0489 0000577 359.2470   0.8764 15.19228326 15328
